FLOCK 4H-16             
1 66719U 25276BF  26194.16170803  .00003996  00000+0  18797-3 0  9990
2 66719  97.4234 267.3317 0002718 268.1140  91.9784 15.20134287 34366
FLOCK 4H-18             
1 66721U 25276BH  26194.76025226  .00003993  00000+0  18815-3 0  9995
2 66721  97.4176 267.7355 0002255 302.7885  57.3132 15.20079935 34458
FLOCK 4H-19             
1 66722U 25276BJ  26194.76064668  .00003435  00000+0  15676-3 0  9992
2 66722  97.4176 268.1961 0002264 151.7081 208.4278 15.21275141 33779
FLOCK 4H-20             
1 66723U 25276BK  26194.76294307  .00003888  00000+0  17621-3 0  9992
2 66723  97.4213 268.3031 0002700 174.0152 186.1117 15.21434030 33738
FLOCK 4H-21             
1 66724U 25276BL  26194.79390904  .00003393  00000+0  15606-3 0  9998
2 66724  97.4176 268.1595 0002553 173.1637 186.9634 15.21020652 33737
FLOCK 4H-22             
1 66725U 25276BM  26194.77219241  .00004149  00000+0  19293-3 0  9997
2 66725  97.4169 267.8498 0001089 310.4066  49.7074 15.20510300 34461
FLOCK 4H-23             
1 66726U 25276BN  26194.75956882  .00004014  00000+0  18923-3 0  9995
2 66726  97.4239 267.9215 0002897 252.0516 108.0404 15.20058919 34455
FLOCK 4H-24             
1 66727U 25276BP  26194.74445884  .00004201  00000+0  19726-3 0  9990
2 66727  97.4235 267.9355 0002401 276.1051  83.9910 15.20168882 34453
FLOCK 4H-25             
1 66728U 25276BQ  26194.74651860  .00004009  00000+0  18428-3 0  9998
2 66728  97.4189 268.1041 0001776 126.6622 233.4777 15.20934083 33753
FLOCK 4H-26             
1 66729U 25276BR  26194.64595584  .00003651  00000+0  17323-3 0  9993
2 66729  97.4190 267.6222 0003201 274.3373  85.7496 15.19890100 34431
FLOCK 4H-27             
1 66730U 25276BS  26194.64536847  .00003733  00000+0  17268-3 0  9991
2 66730  97.4167 267.8584 0001464 126.3112 233.8259 15.20757616 34457
FLOCK 4H-29             
1 66732U 25276BU  26194.75728935  .00004173  00000+0  19672-3 0  9996
2 66732  97.4169 267.7140 0001708 294.9570  65.1487 15.20031810 34459
FLOCK 4H-30             
1 66733U 25276BV  26194.74930696  .00004107  00000+0  19300-3 0  9990
2 66733  97.4229 267.9121 0002590 273.3359  86.7580 15.20154722 34455
FLOCK 4H-31             
1 66734U 25276BW  26194.77007100  .00003618  00000+0  17150-3 0  9996
2 66734  97.4167 267.6939 0002167 286.3860  73.7137 15.19930635 34459
FLOCK 4H-32             
1 66735U 25276BX  26194.75809101  .00003988  00000+0  18806-3 0  9995
2 66735  97.4221 267.8771 0003006 269.6289  90.4601 15.20050337 34455
FLOCK 4H-33             
1 66736U 25276BY  26194.71732948  .00003417  00000+0  15641-3 0  9997
2 66736  97.4219 268.2278 0002576 165.3976 194.7335 15.21177977 34471
