{"fetched_at":"2026-07-14T06:34:23.487Z","source":"https://celestrak.org/NORAD/elements/gp.php?GROUP=planet&FORMAT=JSON","constellation":"superdove","records":[{"OBJECT_NAME":"FLOCK 4H-16","OBJECT_ID":"2025-276BF","EPOCH":"2026-07-13T03:52:51.573792","CLASSIFICATION_TYPE":"U","MEAN_MOTION":15.20134287,"ECCENTRICITY":0.0002718,"INCLINATION":97.4234,"RA_OF_ASC_NODE":267.3317,"ARG_OF_PERICENTER":268.114,"MEAN_ANOMALY":91.9784,"EPHEMERIS_TYPE":0,"NORAD_CAT_ID":66719,"ELEMENT_SET_NO":999,"REV_AT_EPOCH":3436,"BSTAR":0.00018796735,"MEAN_MOTION_DOT":0.00003996,"MEAN_MOTION_DDOT":0},{"OBJECT_NAME":"FLOCK 4H-18","OBJECT_ID":"2025-276BH","EPOCH":"2026-07-13T18:14:45.795264","CLASSIFICATION_TYPE":"U","MEAN_MOTION":15.20079935,"ECCENTRICITY":0.0002255,"INCLINATION":97.4176,"RA_OF_ASC_NODE":267.7355,"ARG_OF_PERICENTER":302.7885,"MEAN_ANOMALY":57.3132,"EPHEMERIS_TYPE":0,"NORAD_CAT_ID":66721,"ELEMENT_SET_NO":999,"REV_AT_EPOCH":3445,"BSTAR":0.00018815,"MEAN_MOTION_DOT":0.00003993,"MEAN_MOTION_DDOT":0},{"OBJECT_NAME":"FLOCK 4H-19","OBJECT_ID":"2025-276BJ","EPOCH":"2026-07-13T18:15:19.873152","CLASSIFICATION_TYPE":"U","MEAN_MOTION":15.21275141,"ECCENTRICITY":0.0002264,"INCLINATION":97.4176,"RA_OF_ASC_NODE":268.1961,"ARG_OF_PERICENTER":151.7081,"MEAN_ANOMALY":208.4278,"EPHEMERIS_TYPE":0,"NORAD_CAT_ID":66722,"ELEMENT_SET_NO":999,"REV_AT_EPOCH":3377,"BSTAR":0.00015676,"MEAN_MOTION_DOT":0.00003435,"MEAN_MOTION_DDOT":0},{"OBJECT_NAME":"FLOCK 4H-20","OBJECT_ID":"2025-276BK","EPOCH":"2026-07-13T18:18:38.281248","CLASSIFICATION_TYPE":"U","MEAN_MOTION":15.2143403,"ECCENTRICITY":0.00027,"INCLINATION":97.4213,"RA_OF_ASC_NODE":268.3031,"ARG_OF_PERICENTER":174.0152,"MEAN_ANOMALY":186.1117,"EPHEMERIS_TYPE":0,"NORAD_CAT_ID":66723,"ELEMENT_SET_NO":999,"REV_AT_EPOCH":3373,"BSTAR":0.00017621,"MEAN_MOTION_DOT":0.00003888,"MEAN_MOTION_DDOT":0},{"OBJECT_NAME":"FLOCK 4H-21","OBJECT_ID":"2025-276BL","EPOCH":"2026-07-13T19:03:13.741056","CLASSIFICATION_TYPE":"U","MEAN_MOTION":15.21020652,"ECCENTRICITY":0.0002553,"INCLINATION":97.4176,"RA_OF_ASC_NODE":268.1595,"ARG_OF_PERICENTER":173.1637,"MEAN_ANOMALY":186.9634,"EPHEMERIS_TYPE":0,"NORAD_CAT_ID":66724,"ELEMENT_SET_NO":999,"REV_AT_EPOCH":3373,"BSTAR":0.00015606,"MEAN_MOTION_DOT":0.00003393,"MEAN_MOTION_DDOT":0},{"OBJECT_NAME":"FLOCK 4H-22","OBJECT_ID":"2025-276BM","EPOCH":"2026-07-13T18:31:57.424224","CLASSIFICATION_TYPE":"U","MEAN_MOTION":15.205103,"ECCENTRICITY":0.0001089,"INCLINATION":97.4169,"RA_OF_ASC_NODE":267.8498,"ARG_OF_PERICENTER":310.4066,"MEAN_ANOMALY":49.7074,"EPHEMERIS_TYPE":0,"NORAD_CAT_ID":66725,"ELEMENT_SET_NO":999,"REV_AT_EPOCH":3446,"BSTAR":0.00019293,"MEAN_MOTION_DOT":0.00004149,"MEAN_MOTION_DDOT":0},{"OBJECT_NAME":"FLOCK 4H-23","OBJECT_ID":"2025-276BN","EPOCH":"2026-07-13T18:13:46.746048","CLASSIFICATION_TYPE":"U","MEAN_MOTION":15.20058919,"ECCENTRICITY":0.0002897,"INCLINATION":97.4239,"RA_OF_ASC_NODE":267.9215,"ARG_OF_PERICENTER":252.0516,"MEAN_ANOMALY":108.0404,"EPHEMERIS_TYPE":0,"NORAD_CAT_ID":66726,"ELEMENT_SET_NO":999,"REV_AT_EPOCH":3445,"BSTAR":0.00018923,"MEAN_MOTION_DOT":0.00004014,"MEAN_MOTION_DDOT":0},{"OBJECT_NAME":"FLOCK 4H-24","OBJECT_ID":"2025-276BP","EPOCH":"2026-07-13T17:52:01.243776","CLASSIFICATION_TYPE":"U","MEAN_MOTION":15.20168882,"ECCENTRICITY":0.0002401,"INCLINATION":97.4235,"RA_OF_ASC_NODE":267.9355,"ARG_OF_PERICENTER":276.1051,"MEAN_ANOMALY":83.991,"EPHEMERIS_TYPE":0,"NORAD_CAT_ID":66727,"ELEMENT_SET_NO":999,"REV_AT_EPOCH":3445,"BSTAR":0.00019726,"MEAN_MOTION_DOT":0.00004201,"MEAN_MOTION_DDOT":0},{"OBJECT_NAME":"FLOCK 4H-25","OBJECT_ID":"2025-276BQ","EPOCH":"2026-07-13T17:54:59.207040","CLASSIFICATION_TYPE":"U","MEAN_MOTION":15.20934083,"ECCENTRICITY":0.0001776,"INCLINATION":97.4189,"RA_OF_ASC_NODE":268.1041,"ARG_OF_PERICENTER":126.6622,"MEAN_ANOMALY":233.4777,"EPHEMERIS_TYPE":0,"NORAD_CAT_ID":66728,"ELEMENT_SET_NO":999,"REV_AT_EPOCH":3375,"BSTAR":0.00018428,"MEAN_MOTION_DOT":0.00004009,"MEAN_MOTION_DDOT":0},{"OBJECT_NAME":"FLOCK 4H-26","OBJECT_ID":"2025-276BR","EPOCH":"2026-07-13T15:30:10.584576","CLASSIFICATION_TYPE":"U","MEAN_MOTION":15.198901,"ECCENTRICITY":0.0003201,"INCLINATION":97.419,"RA_OF_ASC_NODE":267.6222,"ARG_OF_PERICENTER":274.3373,"MEAN_ANOMALY":85.7496,"EPHEMERIS_TYPE":0,"NORAD_CAT_ID":66729,"ELEMENT_SET_NO":999,"REV_AT_EPOCH":3443,"BSTAR":0.00017323,"MEAN_MOTION_DOT":0.00003651,"MEAN_MOTION_DDOT":0},{"OBJECT_NAME":"FLOCK 4H-27","OBJECT_ID":"2025-276BS","EPOCH":"2026-07-13T15:29:19.835808","CLASSIFICATION_TYPE":"U","MEAN_MOTION":15.20757616,"ECCENTRICITY":0.0001464,"INCLINATION":97.4167,"RA_OF_ASC_NODE":267.8584,"ARG_OF_PERICENTER":126.3112,"MEAN_ANOMALY":233.8259,"EPHEMERIS_TYPE":0,"NORAD_CAT_ID":66730,"ELEMENT_SET_NO":999,"REV_AT_EPOCH":3445,"BSTAR":0.00017268,"MEAN_MOTION_DOT":0.00003733,"MEAN_MOTION_DDOT":0},{"OBJECT_NAME":"FLOCK 4H-29","OBJECT_ID":"2025-276BU","EPOCH":"2026-07-13T18:10:29.799840","CLASSIFICATION_TYPE":"U","MEAN_MOTION":15.2003181,"ECCENTRICITY":0.0001708,"INCLINATION":97.4169,"RA_OF_ASC_NODE":267.714,"ARG_OF_PERICENTER":294.957,"MEAN_ANOMALY":65.1487,"EPHEMERIS_TYPE":0,"NORAD_CAT_ID":66732,"ELEMENT_SET_NO":999,"REV_AT_EPOCH":3445,"BSTAR":0.00019672,"MEAN_MOTION_DOT":0.00004173,"MEAN_MOTION_DDOT":0},{"OBJECT_NAME":"FLOCK 4H-30","OBJECT_ID":"2025-276BV","EPOCH":"2026-07-13T17:59:00.121344","CLASSIFICATION_TYPE":"U","MEAN_MOTION":15.20154722,"ECCENTRICITY":0.000259,"INCLINATION":97.4229,"RA_OF_ASC_NODE":267.9121,"ARG_OF_PERICENTER":273.3359,"MEAN_ANOMALY":86.758,"EPHEMERIS_TYPE":0,"NORAD_CAT_ID":66733,"ELEMENT_SET_NO":999,"REV_AT_EPOCH":3445,"BSTAR":0.000193,"MEAN_MOTION_DOT":0.00004107,"MEAN_MOTION_DDOT":0},{"OBJECT_NAME":"FLOCK 4H-31","OBJECT_ID":"2025-276BW","EPOCH":"2026-07-13T18:28:54.134400","CLASSIFICATION_TYPE":"U","MEAN_MOTION":15.19930635,"ECCENTRICITY":0.0002167,"INCLINATION":97.4167,"RA_OF_ASC_NODE":267.6939,"ARG_OF_PERICENTER":286.386,"MEAN_ANOMALY":73.7137,"EPHEMERIS_TYPE":0,"NORAD_CAT_ID":66734,"ELEMENT_SET_NO":999,"REV_AT_EPOCH":3445,"BSTAR":0.0001715,"MEAN_MOTION_DOT":0.00003618,"MEAN_MOTION_DDOT":0},{"OBJECT_NAME":"FLOCK 4H-32","OBJECT_ID":"2025-276BX","EPOCH":"2026-07-13T18:11:39.063264","CLASSIFICATION_TYPE":"U","MEAN_MOTION":15.20050337,"ECCENTRICITY":0.0003006,"INCLINATION":97.4221,"RA_OF_ASC_NODE":267.8771,"ARG_OF_PERICENTER":269.6289,"MEAN_ANOMALY":90.4601,"EPHEMERIS_TYPE":0,"NORAD_CAT_ID":66735,"ELEMENT_SET_NO":999,"REV_AT_EPOCH":3445,"BSTAR":0.00018806,"MEAN_MOTION_DOT":0.00003988,"MEAN_MOTION_DDOT":0},{"OBJECT_NAME":"FLOCK 4H-33","OBJECT_ID":"2025-276BY","EPOCH":"2026-07-13T17:12:57.267072","CLASSIFICATION_TYPE":"U","MEAN_MOTION":15.21177977,"ECCENTRICITY":0.0002576,"INCLINATION":97.4219,"RA_OF_ASC_NODE":268.2278,"ARG_OF_PERICENTER":165.3976,"MEAN_ANOMALY":194.7335,"EPHEMERIS_TYPE":0,"NORAD_CAT_ID":66736,"ELEMENT_SET_NO":999,"REV_AT_EPOCH":3447,"BSTAR":0.00015641,"MEAN_MOTION_DOT":0.00003417,"MEAN_MOTION_DDOT":0}]}
